{
  "type": "FeatureCollection",
  "features": [
    {
      "type": "Feature",
      "properties": {
        "norad_id": 34614,
        "name": "COSMOS 2251 DEB",
        "group": "cosmos-2251-debris",
        "lat": 40.087030084256845,
        "lon": 1.4917779807491232,
        "alt_km": 758.4430341911639,
        "timestamp": "2025-12-10T18:57:00.459848+00:00",
        "meta_object_name": "COSMOS 2251 DEB",
        "meta_object_id": "1993-036WK",
        "meta_epoch": "2025-12-09T19:18:03.624768",
        "meta_mean_motion": 14.17368164,
        "meta_eccentricity": 0.01976861,
        "meta_inclination": 73.8718,
        "meta_ra_of_asc_node": 349.1689,
        "meta_arg_of_pericenter": 343.5765,
        "meta_mean_anomaly": 70.6,
        "meta_ephemeris_type": 0,
        "meta_classification_type": "U",
        "meta_norad_cat_id": 34614,
        "meta_element_set_no": 999,
        "meta_rev_at_epoch": 84725,
        "meta_bstar": 0.0091025233,
        "meta_mean_motion_dot": 0.00022363,
        "meta_mean_motion_ddot": 0,
        "tle_line1": "1 34614U 93036WK  25343.80420862  .00022363  00000+0  91025-2 0  9990",
        "tle_line2": "2 34614  73.8718 349.1689 0197686 343.5765  70.6000 14.17368164847254"
      },
      "geometry": {
        "type": "Point",
        "coordinates": [
          1.4917779807491232,
          40.087030084256845
        ]
      }
    },
    {
      "type": "Feature",
      "properties": {
        "norad_id": 34615,
        "name": "COSMOS 2251 DEB",
        "group": "cosmos-2251-debris",
        "lat": 29.38965406071195,
        "lon": -53.433576727053115,
        "alt_km": 1359.4467795234432,
        "timestamp": "2025-12-10T18:57:00.459858+00:00",
        "meta_object_name": "COSMOS 2251 DEB",
        "meta_object_id": "1993-036WL",
        "meta_epoch": "2025-12-09T21:39:15.223392",
        "meta_mean_motion": 13.52200578,
        "meta_eccentricity": 0.04014935,
        "meta_inclination": 74.005,
        "meta_ra_of_asc_node": 298.6922,
        "meta_arg_of_pericenter": 206.5216,
        "meta_mean_anomaly": 186.9072,
        "meta_ephemeris_type": 0,
        "meta_classification_type": "U",
        "meta_norad_cat_id": 34615,
        "meta_element_set_no": 999,
        "meta_rev_at_epoch": 82777,
        "meta_bstar": 0.00013677101,
        "meta_mean_motion_dot": 1.28e-06,
        "meta_mean_motion_ddot": 0,
        "tle_line1": "1 34615U 93036WL  25343.90225953  .00000128  00000+0  13677-3 0  9999",
        "tle_line2": "2 34615  74.0050 298.6922 0401493 206.5216 186.9072 13.52200578827775"
      },
      "geometry": {
        "type": "Point",
        "coordinates": [
          -53.433576727053115,
          29.38965406071195
        ]
      }
    },
    {
      "type": "Feature",
      "properties": {
        "norad_id": 34619,
        "name": "COSMOS 2251 DEB",
        "group": "cosmos-2251-debris",
        "lat": -47.298751571626184,
        "lon": 41.748253003093225,
        "alt_km": 660.4436126640376,
        "timestamp": "2025-12-10T18:57:00.459868+00:00",
        "meta_object_name": "COSMOS 2251 DEB",
        "meta_object_id": "1993-036WQ",
        "meta_epoch": "2025-12-10T08:03:34.701120",
        "meta_mean_motion": 14.64636349,
        "meta_eccentricity": 0.0094688,
        "meta_inclination": 74.0441,
        "meta_ra_of_asc_node": 204.5587,
        "meta_arg_of_pericenter": 299.9813,
        "meta_mean_anomaly": 59.1981,
        "meta_ephemeris_type": 0,
        "meta_classification_type": "U",
        "meta_norad_cat_id": 34619,
        "meta_element_set_no": 999,
        "meta_rev_at_epoch": 89263,
        "meta_bstar": 0.00032721,
        "meta_mean_motion_dot": 1.823e-05,
        "meta_mean_motion_ddot": 0,
        "tle_line1": "1 34619U 93036WQ  25344.33581830  .00001823  00000+0  32721-3 0  9994",
        "tle_line2": "2 34619  74.0441 204.5587 0094688 299.9813  59.1981 14.64636349892639"
      },
      "geometry": {
        "type": "Point",
        "coordinates": [
          41.748253003093225,
          -47.298751571626184
        ]
      }
    },
    {
      "type": "Feature",
      "properties": {
        "norad_id": 34620,
        "name": "COSMOS 2251 DEB",
        "group": "cosmos-2251-debris",
        "lat": -35.622442571677894,
        "lon": 55.01004495202818,
        "alt_km": 692.2597852623994,
        "timestamp": "2025-12-10T18:57:00.459878+00:00",
        "meta_object_name": "COSMOS 2251 DEB",
        "meta_object_id": "1993-036WR",
        "meta_epoch": "2025-12-10T09:39:33.141024",
        "meta_mean_motion": 14.49037519,
        "meta_eccentricity": 0.0081048,
        "meta_inclination": 74.0508,
        "meta_ra_of_asc_node": 223.911,
        "meta_arg_of_pericenter": 260.8729,
        "meta_mean_anomaly": 98.3254,
        "meta_ephemeris_type": 0,
        "meta_classification_type": "U",
        "meta_norad_cat_id": 34620,
        "meta_element_set_no": 999,
        "meta_rev_at_epoch": 86793,
        "meta_bstar": 0.0032658,
        "meta_mean_motion_dot": 0.00012919,
        "meta_mean_motion_ddot": 0,
        "tle_line1": "1 34620U 93036WR  25344.40246691  .00012919  00000+0  32658-2 0  9993",
        "tle_line2": "2 34620  74.0508 223.9110 0081048 260.8729  98.3254 14.49037519867931"
      },
      "geometry": {
        "type": "Point",
        "coordinates": [
          55.01004495202818,
          -35.622442571677894
        ]
      }
    },
    {
      "type": "Feature",
      "properties": {
        "norad_id": 34622,
        "name": "COSMOS 2251 DEB",
        "group": "cosmos-2251-debris",
        "lat": 42.846069211724725,
        "lon": -34.09850599330703,
        "alt_km": 741.0889003995317,
        "timestamp": "2025-12-10T18:57:00.459888+00:00",
        "meta_object_name": "COSMOS 2251 DEB",
        "meta_object_id": "1993-036WT",
        "meta_epoch": "2025-12-08T16:55:13.351296",
        "meta_mean_motion": 14.22019914,
        "meta_eccentricity": 0.01041794,
        "meta_inclination": 74.043,
        "meta_ra_of_asc_node": 314.2506,
        "meta_arg_of_pericenter": 37.7275,
        "meta_mean_anomaly": 139.8016,
        "meta_ephemeris_type": 0,
        "meta_classification_type": "U",
        "meta_norad_cat_id": 34622,
        "meta_element_set_no": 999,
        "meta_rev_at_epoch": 86402,
        "meta_bstar": 0.0018808383,
        "meta_mean_motion_dot": 4.371e-05,
        "meta_mean_motion_ddot": 0,
        "tle_line1": "1 34622U 93036WT  25342.70501564  .00004371  00000+0  18808-2 0  9993",
        "tle_line2": "2 34622  74.0430 314.2506 0104179  37.7275 139.8016 14.22019914864022"
      },
      "geometry": {
        "type": "Point",
        "coordinates": [
          -34.09850599330703,
          42.846069211724725
        ]
      }
    },
    {
      "type": "Feature",
      "properties": {
        "norad_id": 34626,
        "name": "COSMOS 2251 DEB",
        "group": "cosmos-2251-debris",
        "lat": -54.53443117014619,
        "lon": 171.35704188122142,
        "alt_km": 679.4495555110234,
        "timestamp": "2025-12-10T18:57:00.459898+00:00",
        "meta_object_name": "COSMOS 2251 DEB",
        "meta_object_id": "1993-036WX",
        "meta_epoch": "2025-12-10T10:17:27.112128",
        "meta_mean_motion": 14.72149113,
        "meta_eccentricity": 0.0026422,
        "meta_inclination": 74.0487,
        "meta_ra_of_asc_node": 328.3867,
        "meta_arg_of_pericenter": 57.3326,
        "meta_mean_anomaly": 69.139,
        "meta_ephemeris_type": 0,
        "meta_classification_type": "U",
        "meta_norad_cat_id": 34626,
        "meta_element_set_no": 999,
        "meta_rev_at_epoch": 89110,
        "meta_bstar": 0.0015222,
        "meta_mean_motion_dot": 9.623e-05,
        "meta_mean_motion_ddot": 0,
        "tle_line1": "1 34626U 93036WX  25344.42878602  .00009623  00000+0  15222-2 0  9990",
        "tle_line2": "2 34626  74.0487 328.3867 0026422  57.3326  69.1390 14.72149113891102"
      },
      "geometry": {
        "type": "Point",
        "coordinates": [
          171.35704188122142,
          -54.53443117014619
        ]
      }
    },
    {
      "type": "Feature",
      "properties": {
        "norad_id": 34634,
        "name": "COSMOS 2251 DEB",
        "group": "cosmos-2251-debris",
        "lat": 18.933783817566145,
        "lon": -146.9638912313236,
        "alt_km": 676.610417190599,
        "timestamp": "2025-12-10T18:57:00.459908+00:00",
        "meta_object_name": "COSMOS 2251 DEB",
        "meta_object_id": "1993-036XF",
        "meta_epoch": "2025-12-10T05:17:05.490816",
        "meta_mean_motion": 14.55647072,
        "meta_eccentricity": 0.0044295,
        "meta_inclination": 74.0526,
        "meta_ra_of_asc_node": 39.7426,
        "meta_arg_of_pericenter": 147.8754,
        "meta_mean_anomaly": 269.6264,
        "meta_ephemeris_type": 0,
        "meta_classification_type": "U",
        "meta_norad_cat_id": 34634,
        "meta_element_set_no": 999,
        "meta_rev_at_epoch": 88745,
        "meta_bstar": 0.0005139,
        "meta_mean_motion_dot": 2.245e-05,
        "meta_mean_motion_ddot": 0,
        "tle_line1": "1 34634U 93036XF  25344.22020244  .00002245  00000+0  51390-3 0  9998",
        "tle_line2": "2 34634  74.0526  39.7426 0044295 147.8754 269.6264 14.55647072887455"
      },
      "geometry": {
        "type": "Point",
        "coordinates": [
          -146.9638912313236,
          18.933783817566145
        ]
      }
    }
  ]
}